[
  {
    "name": "KUIPER-00057",
    "noradId": "64517",
    "line1": "1 64517U 25134T   26160.37224918  .00001390  00000+0  21120-3 0  9990",
    "line2": "2 64517  51.8990 185.1552 0000470  85.8953 274.2063 14.79938748 53689"
  },
  {
    "name": "KUIPER-00058",
    "noradId": "64518",
    "line1": "1 64518U 25134U   26160.34388296  .00001893  00000+0  27730-3 0  9999",
    "line2": "2 64518  51.8996 180.2474 0000448  84.8224 275.2790 14.79928793 53755"
  },
  {
    "name": "KUIPER-00059",
    "noradId": "64519",
    "line1": "1 64519U 25134V   26160.34927560  .00001799  00000+0  26491-3 0  9991",
    "line2": "2 64519  51.8989 175.2667 0000501  88.8513 271.2507 14.79926335 53821"
  },
  {
    "name": "KUIPER-00060",
    "noradId": "64520",
    "line1": "1 64520U 25134W   26160.31551851  .00001871  00000+0  27434-3 0  9995",
    "line2": "2 64520  51.9017 175.4708 0000484  79.0921 281.0096 14.79939174 53804"
  },
  {
    "name": "KUIPER-00061",
    "noradId": "64521",
    "line1": "1 64521U 25134X   26159.32828708 -.00006145  00000+0 -78116-3 0  9997",
    "line2": "2 64521  51.8981 187.2975 0000435 359.3372   0.7590 14.79753161 53558"
  },
  {
    "name": "KUIPER-00062",
    "noradId": "64522",
    "line1": "1 64522U 25134Y   26160.33846077  .00001972  00000+0  28766-3 0  9997",
    "line2": "2 64522  51.8951 185.3181 0000426  89.0171 271.0840 14.79930299 53682"
  },
  {
    "name": "KUIPER-00063",
    "noradId": "64523",
    "line1": "1 64523U 25134Z   26160.39794360  .00001965  00000+0  28666-3 0  9992",
    "line2": "2 64523  51.9011 192.5891 0000548  89.2767 270.8258 14.79929495 53582"
  },
  {
    "name": "KUIPER-00064",
    "noradId": "64524",
    "line1": "1 64524U 25134AA  26160.26556538  .00001951  00000+0  28487-3 0  9998",
    "line2": "2 64524  51.9021 190.5978 0000480  98.7441 261.3576 14.79935166 53600"
  },
  {
    "name": "KUIPER-00065",
    "noradId": "64525",
    "line1": "1 64525U 25134AB  26160.39523706  .00002010  00000+0  29247-3 0  9996",
    "line2": "2 64525  51.9029 195.1921 0000462  87.9751 272.1264 14.79942426 53535"
  },
  {
    "name": "KUIPER-00066",
    "noradId": "64526",
    "line1": "1 64526U 25134AC  26160.22628169  .00002417  00000+0  34599-3 0  9995",
    "line2": "2 64526  51.9014 133.2219 0000540  52.6667 307.4345 14.79932070 54408"
  },
  {
    "name": "KUIPER-00069",
    "noradId": "64816",
    "line1": "1 64816U 25151A   26160.48714658 -.00003738  00000+0 -46168-3 0  9997",
    "line2": "2 64816  51.9012 234.7100 0000509  91.6209 268.4812 14.79924746 50350"
  },
  {
    "name": "KUIPER-00070",
    "noradId": "64817",
    "line1": "1 64817U 25151B   26160.56042890 -.00062885  00000+0 -83429-2 0  9997",
    "line2": "2 64817  51.8995 259.2934 0000993  81.2240 278.8835 14.79702428 50029"
  },
  {
    "name": "KUIPER-00071",
    "noradId": "64818",
    "line1": "1 64818U 25151C   26160.49665443  .00001056  00000+0  16747-3 0  9996",
    "line2": "2 64818  51.9003 257.1215 0000448  99.1411 260.9602 14.79926974 48860"
  },
  {
    "name": "KUIPER-00072",
    "noradId": "64819",
    "line1": "1 64819U 25151D   26160.48446798 -.00001390  00000+0 -15349-3 0  9996",
    "line2": "2 64819  51.8970 237.1305 0001397  97.6664 262.4457 14.79897715 49145"
  },
  {
    "name": "KUIPER-00073",
    "noradId": "64820",
    "line1": "1 64820U 25151E   26160.53042445  .00002146  00000+0  31038-3 0  9996",
    "line2": "2 64820  51.9007 256.9582 0000209  62.2018 297.8965 14.79941730 50052"
  },
  {
    "name": "KUIPER-00074",
    "noradId": "64821",
    "line1": "1 64821U 25151F   26160.52433755  .00274418  00000+0  10935-2 0  9999",
    "line2": "2 64821  51.8859 184.8934 0008928   4.8738 355.2355 15.85275590 49865"
  },
  {
    "name": "KUIPER-00075",
    "noradId": "64822",
    "line1": "1 64822U 25151G   26160.22878676  .00038435  00000+0  82409-3 0  9995",
    "line2": "2 64822  51.8679 135.3321 0002459 256.0476 104.0241 15.44361215 50535"
  },
  {
    "name": "KUIPER-00076",
    "noradId": "64823",
    "line1": "1 64823U 25151H   26160.54120563  .00001995  00000+0  29061-3 0  9992",
    "line2": "2 64823  51.9005 246.9284 0000517 102.9111 257.1909 14.79931088 49015"
  },
  {
    "name": "KUIPER-00077",
    "noradId": "64824",
    "line1": "1 64824U 25151J   26160.53574747  .00003142  00000+0  44059-3 0  9999",
    "line2": "2 64824  51.9005 251.9679 0000473 105.3338 254.7676 14.79969519 48944"
  },
  {
    "name": "KUIPER-00078",
    "noradId": "64825",
    "line1": "1 64825U 25151K   26160.50472742  .00004648  00000+0  63801-3 0  9997",
    "line2": "2 64825  51.9015 249.5866 0000527  81.1915 278.9107 14.79947796 48972"
  },
  {
    "name": "KUIPER-00079",
    "noradId": "64826",
    "line1": "1 64826U 25151L   26160.53310988  .00003214  00000+0  45041-3 0  9998",
    "line2": "2 64826  51.8986 254.4264 0000498  95.6386 264.4633 14.79935767 50102"
  },
  {
    "name": "KUIPER-00080",
    "noradId": "64827",
    "line1": "1 64827U 25151M   26160.56685919  .00009494  00000+0  12717-2 0  9990",
    "line2": "2 64827  51.9004 254.2876 0000725 127.3342 232.7686 14.79962421 48919"
  },
  {
    "name": "KUIPER-00082",
    "noradId": "64828",
    "line1": "1 64828U 25151N   26160.47905824  .00002853  00000+0  40310-3 0  9994",
    "line2": "2 64828  51.9015 242.2210 0000560 106.2502 253.8522 14.79927587 49077"
  },
  {
    "name": "KUIPER-00083",
    "noradId": "64829",
    "line1": "1 64829U 25151P   26160.53850494  .00003109  00000+0  43663-3 0  9993",
    "line2": "2 64829  51.9011 249.4438 0000588 104.3775 255.7253 14.79937434 50162"
  },
  {
    "name": "KUIPER-00084",
    "noradId": "64830",
    "line1": "1 64830U 25151Q   26160.52772267  .00000629  00000+0  11155-3 0  9990",
    "line2": "2 64830  51.9017 259.4763 0000551  99.8703 260.2321 14.79923783 48831"
  },
  {
    "name": "KUIPER-00085",
    "noradId": "64831",
    "line1": "1 64831U 25151R   26160.51284553  .00001319  00000+0  20193-3 0  9995",
    "line2": "2 64831  51.9016 242.1134 0000646 100.7207 259.3828 14.79932004 49072"
  },
  {
    "name": "KUIPER-00086",
    "noradId": "64832",
    "line1": "1 64832U 25151S   26160.50204281 -.00000623  00000+0 -52735-4 0  9992",
    "line2": "2 64832  51.9012 252.1152 0000567 104.6030 255.4996 14.79928534 48939"
  },
  {
    "name": "KUIPER-00087",
    "noradId": "64833",
    "line1": "1 64833U 25151T   26160.45338626  .00002593  00000+0  36895-3 0  9992",
    "line2": "2 64833  51.8992 234.7967 0000543  97.7773 262.3251 14.79937391 49164"
  },
  {
    "name": "KUIPER-00089",
    "noradId": "64834",
    "line1": "1 64834U 25151U   26160.51553708  .00001320  00000+0  20215-3 0  9996",
    "line2": "2 64834  51.8996 239.5407 0000558  97.8278 262.2748 14.79929998 49117"
  },
  {
    "name": "KUIPER-00090",
    "noradId": "64835",
    "line1": "1 64835U 25151V   26160.45609309  .00001779  00000+0  26227-3 0  9996",
    "line2": "2 64835  51.8980 232.3165 0000501  87.8090 272.2930 14.79928302 49204"
  },
  {
    "name": "KUIPER-00091",
    "noradId": "64836",
    "line1": "1 64836U 25151W   26160.51823293  .00001669  00000+0  24796-3 0  9991",
    "line2": "2 64836  51.9009 237.0435 0000614  96.6643 263.4389 14.79928031 49149"
  },
  {
    "name": "KUIPER-00092",
    "noradId": "64837",
    "line1": "1 64837U 25151X   26160.51014513  .00001231  00000+0  19046-3 0  9996",
    "line2": "2 64837  51.8997 244.5723 0000575  94.5606 265.5422 14.79932181 50256"
  },
  {
    "name": "KUIPER-00093",
    "noradId": "64838",
    "line1": "1 64838U 25151Y   26160.50744251  .00001404  00000+0  21316-3 0  9990",
    "line2": "2 64838  51.8991 247.0595 0000625  98.6927 261.4107 14.79931950 49002"
  },
  {
    "name": "KUIPER-00094",
    "noradId": "64839",
    "line1": "1 64839U 25151Z   26160.58337963  .00007107  00000+0  94215-3 0  9991",
    "line2": "2 64839  51.9023 201.8092 0001317  69.7822  73.3035 14.80741297  5773"
  },
  {
    "name": "KUIPER-00081",
    "noradId": "65132",
    "line1": "1 65132U 25171A   26160.08982490  .00002933  00000+0  41353-3 0  9993",
    "line2": "2 65132  51.8998 103.9021 0000758  80.7067 279.3981 14.79943565 46577"
  },
  {
    "name": "KUIPER-00088",
    "noradId": "65133",
    "line1": "1 65133U 25171B   26160.07095564  .00002618  00000+0  37223-3 0  9991",
    "line2": "2 65133  51.8990 121.4887 0000688  61.4463 298.6569 14.79936265 46321"
  },
  {
    "name": "KUIPER-00095",
    "noradId": "65134",
    "line1": "1 65134U 25171C   26160.09253542  .00000491  00000+0  93440-4 0  9997",
    "line2": "2 65134  51.8987 101.4475 0000784  92.2318 267.8734 14.79928342 46607"
  },
  {
    "name": "KUIPER-00096",
    "noradId": "65135",
    "line1": "1 65135U 25171D   26160.18034549  .00003061  00000+0  43033-3 0  9990",
    "line2": "2 65135  51.8994 113.5033 0000742  79.4175 280.6871 14.79933117 46445"
  },
  {
    "name": "KUIPER-00097",
    "noradId": "65136",
    "line1": "1 65136U 25171E   26160.17766704  .00001778  00000+0  26225-3 0  9992",
    "line2": "2 65136  51.9018 116.1642 0000741  73.8325 286.2719 14.79930425 46399"
  },
  {
    "name": "KUIPER-00098",
    "noradId": "65137",
    "line1": "1 65137U 25171F   26160.17493925  .00008977  00000+0  12042-2 0  9994",
    "line2": "2 65137  51.8985 118.5444 0000640  71.3499 288.7533 14.79959771 45712"
  },
  {
    "name": "KUIPER-00099",
    "noradId": "65138",
    "line1": "1 65138U 25171G   26160.55715841  .00002073  00000+0  30089-3 0  9994",
    "line2": "2 65138  51.9002 106.8532 0000912  81.4418 278.6648 14.79933262 46563"
  },
  {
    "name": "KUIPER-00100",
    "noradId": "65139",
    "line1": "1 65139U 25171H   26160.05337333  .00000635  00000+0  11236-3 0  9991",
    "line2": "2 65139  51.9011 106.5537 0000736  77.8140 282.2905 14.79931100 46523"
  },
  {
    "name": "KUIPER-00102",
    "noradId": "65140",
    "line1": "1 65140U 25171J   26160.11820770  .00000091  00000+0  40916-4 0  9996",
    "line2": "2 65140  51.8974 108.7652 0000670  86.5022 273.6017 14.79925123 46499"
  }
]